SL-14 R/B               
1 16792U 86046B   25332.09732678  .00000553  00000+0  61073-4 0  9999
2 16792  82.4815 176.1422 0022546 200.4110 159.6207 14.85461715111325
SL-14 R/B               
1 16882U 86055B   25332.11490498  .00000612  00000+0  67970-4 0  9991
2 16882  82.5216 222.1132 0017835 311.7746 210.2425 14.85508573104284
AJISAI (EGS)            
1 16908U 86061A   25332.20000942 -.00000095  00000+0  16385-4 0  9998
2 16908  50.0111  45.4252 0011248  29.3644   6.5384 12.44514123455366
COSMOS 1812             
1 17295U 87003A   25331.91470904  .00086054  00000+0  64966-3 0  9996
2 17295  82.4880 308.0225 0006808 105.3426 254.8589 15.72142679128320
SL-14 R/B               
1 17567U 87024B   25332.10023808  .00000540  00000+0  58945-4 0  9997
2 17567  82.5285 188.2061 0016982 234.7293 125.2336 14.86002317 73048
COSMOS 1833             
1 17589U 87027A   25331.85162394 -.00000044  00000+0  20844-5 0  9997
2 17589  70.9125 180.0752 0021906 352.6813   7.3984 14.13017912995929
SL-16 R/B               
1 17590U 87027B   25331.90898660  .00000284  00000+0  16473-3 0  9993
2 17590  71.0009 130.9685 0007326 274.9489  85.0798 14.17149896   922
SL-14 R/B               
1 17912U 87038B   25332.17778887  .00000579  00000+0  64476-4 0  9995
2 17912  82.5030  32.4154 0020384 137.0473 223.2340 14.85240680 64162
COSMOS 1844             
1 17973U 87041A   25332.06521566 -.00000073  00000+0 -12716-4 0  9995
2 17973  70.8995 248.5208 0030700 180.0561 180.0562 14.14528392989217
SL-14 R/B               
1 18153U 87055B   25332.03751745  .00000625  00000+0  69433-4 0  9991
2 18153  82.4996  84.8429 0020460 353.9073   6.1891 14.85497063 54848
COSMOS 1867             
1 18187U 87060A   25332.07147295 -.00000002  00000+0  36990-4 0  9999
2 18187  65.0101 231.2787 0013614 269.6038  90.3486 14.31482704  5390
COSMOS 1892             
1 18421U 87088A   25332.26536166  .01259464 -11999-5  69250-3 0  9998
2 18421  82.4604  59.9213 0005541 268.2867  91.7787 16.19562950 89005
