CCSDS_OMM_VERS = 2.0
CREATION_DATE  = 
ORIGINATOR     = 

OBJECT_NAME    = SL-14 R/B
OBJECT_ID      = 1986-046B
CENTER_NAME    = EARTH
REF_FRAME      = TEME
TIME_SYSTEM    = UTC
MEAN_ELEMENT_THEORY = SGP/SGP4

EPOCH          = 2025-11-28T02:20:09.033792
MEAN_MOTION    = 14.85461715
ECCENTRICITY   = .0022546
INCLINATION    = 82.4815
RA_OF_ASC_NODE = 176.1422
ARG_OF_PERICENTER = 200.4110
MEAN_ANOMALY   = 159.6207

EPHEMERIS_TYPE = 0
CLASSIFICATION_TYPE = U
NORAD_CAT_ID   = 16792
ELEMENT_SET_NO = 999
REV_AT_EPOCH   = 11132
BSTAR          = .61073E-4
MEAN_MOTION_DOT = .553E-5
MEAN_MOTION_DDOT = 0

CCSDS_OMM_VERS = 2.0
CREATION_DATE  = 
ORIGINATOR     = 

OBJECT_NAME    = SL-14 R/B
OBJECT_ID      = 1986-055B
CENTER_NAME    = EARTH
REF_FRAME      = TEME
TIME_SYSTEM    = UTC
MEAN_ELEMENT_THEORY = SGP/SGP4

EPOCH          = 2025-11-28T02:45:27.790272
MEAN_MOTION    = 14.85508573
ECCENTRICITY   = .0017835
INCLINATION    = 82.5216
RA_OF_ASC_NODE = 222.1132
ARG_OF_PERICENTER = 311.7746
MEAN_ANOMALY   = 210.2425

EPHEMERIS_TYPE = 0
CLASSIFICATION_TYPE = U
NORAD_CAT_ID   = 16882
ELEMENT_SET_NO = 999
REV_AT_EPOCH   = 10428
BSTAR          = .6797E-4
MEAN_MOTION_DOT = .612E-5
MEAN_MOTION_DDOT = 0

CCSDS_OMM_VERS = 2.0
CREATION_DATE  = 
ORIGINATOR     = 

OBJECT_NAME    = AJISAI (EGS)
OBJECT_ID      = 1986-061A
CENTER_NAME    = EARTH
REF_FRAME      = TEME
TIME_SYSTEM    = UTC
MEAN_ELEMENT_THEORY = SGP/SGP4

EPOCH          = 2025-11-28T04:48:00.813888
MEAN_MOTION    = 12.44514123
ECCENTRICITY   = .0011248
INCLINATION    = 50.0111
RA_OF_ASC_NODE = 45.4252
ARG_OF_PERICENTER = 29.3644
MEAN_ANOMALY   = 6.5384

EPHEMERIS_TYPE = 0
CLASSIFICATION_TYPE = U
NORAD_CAT_ID   = 16908
ELEMENT_SET_NO = 999
REV_AT_EPOCH   = 45536
BSTAR          = .16385E-4
MEAN_MOTION_DOT = -.95E-6
MEAN_MOTION_DDOT = 0

CCSDS_OMM_VERS = 2.0
CREATION_DATE  = 
ORIGINATOR     = 

OBJECT_NAME    = COSMOS 1812
OBJECT_ID      = 1987-003A
CENTER_NAME    = EARTH
REF_FRAME      = TEME
TIME_SYSTEM    = UTC
MEAN_ELEMENT_THEORY = SGP/SGP4

EPOCH          = 2025-11-27T21:57:10.861056
MEAN_MOTION    = 15.72142679
ECCENTRICITY   = .0006808
INCLINATION    = 82.4880
RA_OF_ASC_NODE = 308.0225
ARG_OF_PERICENTER = 105.3426
MEAN_ANOMALY   = 254.8589

EPHEMERIS_TYPE = 0
CLASSIFICATION_TYPE = U
NORAD_CAT_ID   = 17295
ELEMENT_SET_NO = 999
REV_AT_EPOCH   = 12832
BSTAR          = .64966E-3
MEAN_MOTION_DOT = .86054E-3
MEAN_MOTION_DDOT = 0

CCSDS_OMM_VERS = 2.0
CREATION_DATE  = 
ORIGINATOR     = 

OBJECT_NAME    = SL-14 R/B
OBJECT_ID      = 1987-024B
CENTER_NAME    = EARTH
REF_FRAME      = TEME
TIME_SYSTEM    = UTC
MEAN_ELEMENT_THEORY = SGP/SGP4

EPOCH          = 2025-11-28T02:24:20.570112
MEAN_MOTION    = 14.86002317
ECCENTRICITY   = .0016982
INCLINATION    = 82.5285
RA_OF_ASC_NODE = 188.2061
ARG_OF_PERICENTER = 234.7293
MEAN_ANOMALY   = 125.2336

EPHEMERIS_TYPE = 0
CLASSIFICATION_TYPE = U
NORAD_CAT_ID   = 17567
ELEMENT_SET_NO = 999
REV_AT_EPOCH   = 7304
BSTAR          = .58945E-4
MEAN_MOTION_DOT = .54E-5
MEAN_MOTION_DDOT = 0

CCSDS_OMM_VERS = 2.0
CREATION_DATE  = 
ORIGINATOR     = 

OBJECT_NAME    = COSMOS 1833
OBJECT_ID      = 1987-027A
CENTER_NAME    = EARTH
REF_FRAME      = TEME
TIME_SYSTEM    = UTC
MEAN_ELEMENT_THEORY = SGP/SGP4

EPOCH          = 2025-11-27T20:26:20.308416
MEAN_MOTION    = 14.13017912
ECCENTRICITY   = .00219065
INCLINATION    = 70.9125
RA_OF_ASC_NODE = 180.0752
ARG_OF_PERICENTER = 352.6813
MEAN_ANOMALY   = 7.3984

EPHEMERIS_TYPE = 0
CLASSIFICATION_TYPE = U
NORAD_CAT_ID   = 17589
ELEMENT_SET_NO = 999
REV_AT_EPOCH   = 99592
BSTAR          = .2084368E-5
MEAN_MOTION_DOT = -.44E-6
MEAN_MOTION_DDOT = 0

CCSDS_OMM_VERS = 2.0
CREATION_DATE  = 
ORIGINATOR     = 

OBJECT_NAME    = SL-16 R/B
OBJECT_ID      = 1987-027B
CENTER_NAME    = EARTH
REF_FRAME      = TEME
TIME_SYSTEM    = UTC
MEAN_ELEMENT_THEORY = SGP/SGP4

EPOCH          = 2025-11-27T21:48:56.442240
MEAN_MOTION    = 14.17149896
ECCENTRICITY   = .0007326
INCLINATION    = 71.0009
RA_OF_ASC_NODE = 130.9685
ARG_OF_PERICENTER = 274.9489
MEAN_ANOMALY   = 85.0798

EPHEMERIS_TYPE = 0
CLASSIFICATION_TYPE = U
NORAD_CAT_ID   = 17590
ELEMENT_SET_NO = 999
REV_AT_EPOCH   = 92
BSTAR          = .16473E-3
MEAN_MOTION_DOT = .284E-5
MEAN_MOTION_DDOT = 0

CCSDS_OMM_VERS = 2.0
CREATION_DATE  = 
ORIGINATOR     = 

OBJECT_NAME    = SL-14 R/B
OBJECT_ID      = 1987-038B
CENTER_NAME    = EARTH
REF_FRAME      = TEME
TIME_SYSTEM    = UTC
MEAN_ELEMENT_THEORY = SGP/SGP4

EPOCH          = 2025-11-28T04:16:00.958368
MEAN_MOTION    = 14.85240680
ECCENTRICITY   = .0020384
INCLINATION    = 82.5030
RA_OF_ASC_NODE = 32.4154
ARG_OF_PERICENTER = 137.0473
MEAN_ANOMALY   = 223.2340

EPHEMERIS_TYPE = 0
CLASSIFICATION_TYPE = U
NORAD_CAT_ID   = 17912
ELEMENT_SET_NO = 999
REV_AT_EPOCH   = 6416
BSTAR          = .64476E-4
MEAN_MOTION_DOT = .579E-5
MEAN_MOTION_DDOT = 0

CCSDS_OMM_VERS = 2.0
CREATION_DATE  = 
ORIGINATOR     = 

OBJECT_NAME    = COSMOS 1844
OBJECT_ID      = 1987-041A
CENTER_NAME    = EARTH
REF_FRAME      = TEME
TIME_SYSTEM    = UTC
MEAN_ELEMENT_THEORY = SGP/SGP4

EPOCH          = 2025-11-28T01:33:54.633024
MEAN_MOTION    = 14.14528392
ECCENTRICITY   = .00307
INCLINATION    = 70.8995
RA_OF_ASC_NODE = 248.5208
ARG_OF_PERICENTER = 180.0561
MEAN_ANOMALY   = 180.0562

EPHEMERIS_TYPE = 0
CLASSIFICATION_TYPE = U
NORAD_CAT_ID   = 17973
ELEMENT_SET_NO = 999
REV_AT_EPOCH   = 98921
BSTAR          = -.12716E-4
MEAN_MOTION_DOT = -.73E-6
MEAN_MOTION_DDOT = 0

CCSDS_OMM_VERS = 2.0
CREATION_DATE  = 
ORIGINATOR     = 

OBJECT_NAME    = SL-14 R/B
OBJECT_ID      = 1987-055B
CENTER_NAME    = EARTH
REF_FRAME      = TEME
TIME_SYSTEM    = UTC
MEAN_ELEMENT_THEORY = SGP/SGP4

EPOCH          = 2025-11-28T00:54:01.507680
MEAN_MOTION    = 14.85497063
ECCENTRICITY   = .002046
INCLINATION    = 82.4996
RA_OF_ASC_NODE = 84.8429
ARG_OF_PERICENTER = 353.9073
MEAN_ANOMALY   = 6.1891

EPHEMERIS_TYPE = 0
CLASSIFICATION_TYPE = U
NORAD_CAT_ID   = 18153
ELEMENT_SET_NO = 999
REV_AT_EPOCH   = 5484
BSTAR          = .69433E-4
MEAN_MOTION_DOT = .625E-5
MEAN_MOTION_DDOT = 0

CCSDS_OMM_VERS = 2.0
CREATION_DATE  = 
ORIGINATOR     = 

OBJECT_NAME    = COSMOS 1867
OBJECT_ID      = 1987-060A
CENTER_NAME    = EARTH
REF_FRAME      = TEME
TIME_SYSTEM    = UTC
MEAN_ELEMENT_THEORY = SGP/SGP4

EPOCH          = 2025-11-28T01:42:55.262880
MEAN_MOTION    = 14.31482704
ECCENTRICITY   = .0013614
INCLINATION    = 65.0101
RA_OF_ASC_NODE = 231.2787
ARG_OF_PERICENTER = 269.6038
MEAN_ANOMALY   = 90.3486

EPHEMERIS_TYPE = 0
CLASSIFICATION_TYPE = U
NORAD_CAT_ID   = 18187
ELEMENT_SET_NO = 999
REV_AT_EPOCH   = 539
BSTAR          = .3699E-4
MEAN_MOTION_DOT = -.2E-7
MEAN_MOTION_DDOT = 0

CCSDS_OMM_VERS = 2.0
CREATION_DATE  = 
ORIGINATOR     = 

OBJECT_NAME    = COSMOS 1892
OBJECT_ID      = 1987-088A
CENTER_NAME    = EARTH
REF_FRAME      = TEME
TIME_SYSTEM    = UTC
MEAN_ELEMENT_THEORY = SGP/SGP4

EPOCH          = 2025-11-28T06:22:07.247424
MEAN_MOTION    = 16.19562950
ECCENTRICITY   = .0005541
INCLINATION    = 82.4604
RA_OF_ASC_NODE = 59.9213
ARG_OF_PERICENTER = 268.2867
MEAN_ANOMALY   = 91.7787

EPHEMERIS_TYPE = 0
CLASSIFICATION_TYPE = U
NORAD_CAT_ID   = 18421
ELEMENT_SET_NO = 999
REV_AT_EPOCH   = 8900
BSTAR          = .6925E-3
MEAN_MOTION_DOT = .1259464E-1
MEAN_MOTION_DDOT = -.11999E-5

